{"signature":{"source":"NASA/JPL SBDB (Small-Body DataBase) Query API","version":"1.0"},"fields":["spkid","full_name","kind","e","a","q","i","om","w","ma","tp","per","n","ad","GM","diameter","pole","rot_per"],"data":[[1000036,"    1P/Halley","cn","0.9679","17.93","0.575","162.20","59.07","112.21","274.81","2446469.70","2.77e+04","0.01298","35.28",null,"11.0",null,null],[1000068,"   12P/Pons-Brooks","cn","0.9546","17.18","0.781","74.19","255.86","198.99","357.07","2460421.63","2.6e+04","0.01384","33.59",null,null,null,null],[1000066,"   13P/Olbers","cn","0.9298","16.66","1.170","44.63","85.84","64.58","337.34","2460492.15","2.48e+04","0.01449","32.16",null,null,null,null],[1000212,"   20D/Westphal","cn","0.9198","15.64","1.254","40.89","348.01","57.08","359.72","2420098.29","2.26e+04","0.01593","30.03",null,null,null,null],[1000009,"   23P/Brorsen-Metcalf","cn","0.9720","17.07","0.479","19.33","311.59","129.61","0.27","2447781.44","2.58e+04","0.01398","33.66",null,null,null,null],[1000016,"   27P/Crommelin","cn","0.9193","9.093","0.734","29.22","250.96","195.96","241.87","2455776.07","1e+04","0.03594","17.45",null,null,null,null],[1000043,"   35P/Herschel-Rigollet","cn","0.9740","28.84","0.748","64.21","355.98","29.30","359.97","2429484.96","5.66e+04","0.006363","56.94",null,null,null,null],[1000089,"   38P/Stephan-Oterma","cn","0.8593","11.29","1.589","18.35","78.00","359.59","355.56","2458433.49","1.39e+04","0.02599","20.99",null,null,null,null],[1000095,"   55P/Tempel-Tuttle","cn","0.9056","10.34","0.976","162.49","235.27","172.50","4.98","2450872.60","1.21e+04","0.02965","19.70",null,"3.6",null,null],[1000140,"  109P/Swift-Tuttle","cn","0.9632","26.09","0.960","113.45","139.38","152.98","7.63","2448968.50","4.87e+04","0.007395","51.22",null,"26",null,null],[1000156,"  122P/de Vico","cn","0.9627","17.68","0.659","85.38","79.62","13.00","3.77","2449996.50","2.72e+04","0.01326","34.70",null,null,null,null],[1000042,"  161P/Hartley-IRAS","cn","0.8351","7.73","1.275","95.70","1.40","47.09","343.87","2453542.35","7.85e+03","0.04586","14.19",null,null,null,null],[1000909,"  177P/Barnard","cn","0.9544","24.3","1.107","31.22","272.07","60.45","358.96","2453976.18","4.38e+04","0.008226","47.50",null,null,null,null],[1000765,"  273P/Pons-Gambart","cn","0.9753","32.83","0.810","136.40","320.43","20.19","0.46","2456281.17","6.87e+04","0.005239","64.85",null,null,null,null],[1000352,"  473P/NEAT","cn","0.8225","7.927","1.407","56.95","22.18","43.11","108.69","2452218.22","8.15e+03","0.04416","14.45",null,null,null,null],[1000954,"     C/1905 F1 (Giacobini)","cu","0.9528","23.56","1.113","40.07","158.95","358.16","0.13","2416940.00","4.18e+04","0.008618","46.01",null,null,null,null],[1000985,"     C/1917 F1 (Mellish)","cu","0.9931","27.4","0.190","32.69","88.67","121.31","359.92","2421329.68","5.24e+04","0.006873","54.61",null,null,null,null],[1000024,"     C/1921 H1 (Dubiago)","cu","0.9347","17.1","1.116","22.35","67.13","97.48","0.22","2422814.88","2.58e+04","0.01394","33.09",null,null,null,null],[1001031,"     C/1937 D1 (Wilk)","cu","0.9806","31.97","0.619","26.01","58.27","31.46","0.13","2428586.03","6.6e+04","0.005452","63.33",null,null,null,null],[1001045,"     C/1942 EA (Vaisala)","cu","0.9268","17.61","1.288","37.86","172.29","335.57","0.45","2430406.62","2.7e+04","0.01334","33.93",null,null,null,null],[1001109,"     C/1960 Y1 (Candy)","cu","0.9303","15.03","1.047","151.17","177.29","138.76","359.44","2437341.47","2.13e+04","0.01692","29.00",null,null,null,null],[1000007,"     C/1984 A1 (Bradfield 1)","cu","0.9523","28.47","1.357","51.80","356.86","219.16","0.38","2445696.30","5.55e+04","0.006489","55.58",null,null,null,null],[1001234,"     C/1989 A3 (Bradfield)","cu","0.9781","19.2","0.421","83.06","28.44","194.77","0.59","2447500.74","3.07e+04","0.01172","37.97",null,null,null,null],[1000129,"     C/1991 L3 (Levy)","cu","0.9289","13.81","0.983","19.19","329.43","41.48","3.34","2448445.70","1.88e+04","0.0192","26.64",null,"11.6",null,null],[1000214,"     C/1998 G1 (LINEAR)","cu","0.8237","12.1","2.133","109.71","341.38","236.32","355.09","2451134.12","1.54e+04","0.02342","22.07",null,null,null,null],[1000245,"     C/1998 Y1 (LINEAR)","cu","0.9239","22.96","1.747","28.11","98.86","339.84","0.47","2451139.08","4.02e+04","0.008961","44.17",null,null,null,null],[1000249,"     C/1999 E1 (Li)","cu","0.7601","16.34","3.920","46.88","127.83","329.77","3.35","2451210.28","2.41e+04","0.01492","28.76",null,null,null,null],[1000266,"     C/1999 G1 (LINEAR)","cu","0.8568","28.27","4.049","76.57","23.46","136.13","1.66","2451027.14","5.49e+04","0.006558","52.48",null,null,null,null],[1000257,"     C/1999 K4 (LINEAR)","cu","0.9165","17.27","1.442","120.77","241.48","8.79","0.05","2451314.96","2.62e+04","0.01374","33.09",null,null,null,null],[1000272,"     C/1999 S3 (LINEAR)","cu","0.9000","18.94","1.895","70.56","11.88","44.13","359.81","2451491.52","3.01e+04","0.01196","35.99",null,null,null,null],[1000297,"     C/2000 D2 (LINEAR)","cu","0.8670","17.28","2.298","156.99","235.89","117.68","359.90","2451612.11","2.62e+04","0.01372","32.26",null,null,null,null],[1000302,"     C/2000 G2 (LINEAR)","cu","0.8095","14.27","2.717","170.48","328.38","101.76","1.33","2451580.71","1.97e+04","0.01829","25.81",null,null,null,null],[1000373,"     C/2001 OG108 (LONEOS)","cu","0.9253","13.3","0.994","80.25","10.56","116.42","357.96","2452348.71","1.77e+04","0.02032","25.61",null,"13.6",null,"57.12"],[1000362,"     C/2001 W2 (BATTERS)","cu","0.9414","17.93","1.051","115.91","113.36","142.09","359.75","2452267.42","2.77e+04","0.01298","34.81",null,null,null,null],[1000375,"     C/2002 B1 (LINEAR)","cu","0.7710","9.918","2.271","51.02","58.19","76.16","357.79","2452384.51","1.14e+04","0.03155","17.56",null,null,null,null],[1000451,"     C/2002 CE10 (LINEAR)","cu","0.7915","9.816","2.047","145.46","147.44","126.19","0.03","2452812.60","1.12e+04","0.03205","17.59",null,null,null,null],[1000395,"     C/2002 K4 (NEAT)","cu","0.8423","17.53","2.765","94.06","308.10","24.43","359.99","2452468.47","2.68e+04","0.01343","32.29",null,null,null,null],[1000429,"     C/2003 F1 (LINEAR)","cu","0.8060","20.66","4.008","70.22","87.49","121.19","359.70","2452818.96","3.43e+04","0.01049","37.32",null,null,null,null],[1000452,"     C/2003 R1 (LINEAR)","cu","0.8933","19.7","2.102","149.20","356.69","302.69","1.20","2452820.12","3.19e+04","0.01127","37.30",null,null,null,null],[1000461,"     C/2003 U1 (LINEAR)","cu","0.9216","22.9","1.796","164.47","322.76","278.38","0.01","2452946.90","4e+04","0.008994","44.00",null,null,null,null],[1000466,"     C/2003 W1 (LINEAR)","cu","0.9343","25.17","1.652","78.08","256.74","113.29","0.21","2452952.96","4.61e+04","0.007805","48.69",null,null,null,null],[1001655,"     C/2005 N5 (Catalina)","cu","0.9433","28.69","1.627","21.38","156.41","207.77","0.17","2453605.18","5.61e+04","0.006415","55.75",null,null,null,null],[1001658,"     C/2005 O2 (Christensen)","cu","0.8594","23.71","3.334","148.89","280.77","263.83","0.14","2453621.95","4.22e+04","0.008539","44.08",null,null,null,null],[1001673,"     P/2005 T4 (SWAN)","cu","0.9304","9.324","0.649","160.04","25.42","41.44","0.47","2453654.04","1.04e+04","0.03462","18.00",null,null,null,null],[1002409,"     P/2006 HR30 (Siding Spring)","cu","0.8431","7.818","1.226","31.88","309.95","117.41","357.46","2454102.78","7.98e+03","0.04509","14.41",null,null,null,"70.7"],[1002992,"     C/2008 R3 (LINEAR)","cu","0.8964","18.42","1.909","43.24","270.55","84.16","359.74","2454792.99","2.89e+04","0.01247","34.93",null,null,null,null],[1003140,"     P/2010 JC81 (WISE)","cu","0.7774","8.133","1.811","38.69","30.77","12.57","9.79","2455678.05","8.47e+03","0.04249","14.46",null,null,null,null],[1003099,"     C/2010 L5 (WISE)","cu","0.9042","8.26","0.791","147.05","206.47","214.76","2.90","2455309.66","8.67e+03","0.04152","15.73",null,null,null,null],[1003127,"     C/2011 J3 (LINEAR)","cu","0.9258","19.56","1.451","114.71","21.51","27.84","1.43","2455585.89","3.16e+04","0.01139","37.68",null,null,null,null],[1003130,"     C/2011 L1 (McNaught)","cu","0.7968","11.04","2.242","65.51","252.36","294.47","4.99","2455548.80","1.34e+04","0.02689","19.83",null,null,null,null],[1003152,"     C/2011 S2 (Kowalski)","cu","0.9316","16.31","1.115","17.57","288.07","192.19","359.95","2455860.85","2.41e+04","0.01497","31.50",null,null,null,null],[1003187,"     C/2012 H2 (McNaught)","cu","0.8936","16.14","1.717","92.84","184.14","295.90","0.22","2456051.23","2.37e+04","0.01521","30.56",null,null,null,null],[1003198,"     P/2012 NJ (La Sagra)","cu","0.8481","8.503","1.292","84.38","315.76","338.41","2.66","2456091.59","9.06e+03","0.03975","15.71",null,null,null,null],[1003213,"     C/2012 T6 (Kowalski)","cu","0.8763","14.35","1.775","33.28","186.22","198.10","1.24","2456165.89","1.99e+04","0.01812","26.93",null,null,null,null],[1003227,"     C/2012 Y3 (McNaught)","cu","0.9399","29.39","1.765","73.23","122.71","235.69","0.98","2456165.35","5.82e+04","0.006187","57.01",null,null,null,null],[1003286,"     C/2013 V3 (Nevski)","cu","0.8910","12.72","1.387","32.13","100.92","339.64","0.74","2456595.41","1.66e+04","0.02173","24.05",null,null,null,null],[1003313,"     C/2014 J1 (Catalina)","cu","0.8024","8.646","1.709","159.70","41.94","195.48","358.68","2456828.52","9.29e+03","0.03877","15.58",null,null,null,null],[1003332,"     C/2014 Q3 (Borisov)","cu","0.9421","28.43","1.647","89.95","63.13","47.38","359.80","2456980.57","5.54e+04","0.0065","55.22",null,null,null,null],[1003359,"     C/2014 W7 (Christensen)","cu","0.8693","11.39","1.488","98.31","151.26","33.24","359.47","2457023.12","1.4e+04","0.02565","21.29",null,null,null,null],[1003360,"     C/2014 W9 (PANSTARRS)","cu","0.8578","11.17","1.587","10.63","21.29","167.77","359.53","2457069.21","1.36e+04","0.02641","20.75",null,null,null,null],[1003367,"     C/2015 A1 (PANSTARRS)","cu","0.9008","20.12","1.996","80.37","341.09","244.88","0.17","2457094.56","3.3e+04","0.01092","38.24",null,null,null,null],[1003369,"     P/2015 A3 (PANSTARRS)","cu","0.8459","7.482","1.153","172.51","277.08","249.62","359.57","2457076.37","7.48e+03","0.04816","13.81",null,null,null,null],[1003382,"     C/2015 F5 (SWAN-Xingming)","cu","0.9777","15.55","0.346","149.26","287.74","13.39","0.40","2457109.60","2.24e+04","0.01607","30.75",null,null,null,null],[1003395,"     C/2015 GX (PANSTARRS)","cu","0.8782","16.19","1.972","90.25","235.52","108.96","0.26","2457261.16","2.38e+04","0.01513","30.40",null,null,null,null],[1003384,"     C/2015 H1 (Bressi)","cu","0.9408","32.54","1.926","140.66","325.80","21.76","0.32","2457110.12","6.78e+04","0.005311","63.15",null,null,null,null],[1003405,"     P/2015 Q2 (Pimentel)","cu","0.7544","7.406","1.819","146.20","228.24","244.41","0.03","2457275.84","7.36e+03","0.0489","12.99",null,null,null,null],[1003418,"     C/2015 V4 (PANSTARRS)","cu","0.7056","18.55","5.460","60.75","179.90","306.91","357.99","2457628.49","2.92e+04","0.01234","31.63",null,null,null,null],[1003422,"     C/2015 X2 (Catalina)","cu","0.8791","15.75","1.905","72.46","101.09","42.02","359.86","2457377.22","2.28e+04","0.01577","29.60",null,null,null,null],[1003429,"     C/2015 X8 (NEOWISE)","cu","0.9391","19.55","1.190","155.28","191.11","20.40","1.04","2457318.62","3.16e+04","0.0114","37.91",null,null,null,null],[1003431,"     C/2015 YG1 (NEOWISE)","cu","0.8792","17.17","2.073","57.34","350.51","102.79","1.79","2457294.47","2.6e+04","0.01385","32.26",null,null,null,null],[1003484,"     C/2016 S1 (PANSTARRS)","cu","0.7088","8.284","2.412","94.69","227.54","273.61","354.63","2457829.31","8.71e+03","0.04134","14.16",null,null,null,null],[1003518,"     P/2016 WM48 (Lemmon)","cu","0.7867","8.195","1.748","117.55","59.87","35.86","357.87","2457811.29","8.57e+03","0.04201","14.64",null,null,null,null],[1003498,"     C/2017 C1 (NEOWISE)","cu","0.9278","20.8","1.502","65.75","357.46","110.20","0.48","2457772.45","3.47e+04","0.01039","40.11",null,null,null,null],[1003505,"     C/2017 E2 (Tsuchinshan)","cu","0.8909","21.57","2.353","79.17","11.56","89.46","3.09","2457520.73","3.66e+04","0.009842","40.78",null,null,null,null],[1003514,"     P/2017 G2 (PANSTARRS)","cu","0.6503","8.139","2.846","47.91","79.82","105.94","358.77","2457918.41","8.48e+03","0.04244","13.43",null,null,null,null],[1003548,"     C/2017 W2 (Leonard)","cu","0.7113","13.71","3.957","98.18","312.81","169.16","1.05","2458059.44","1.85e+04","0.01943","23.45",null,null,null,null],[1003554,"     P/2017 Y3 (Leonard)","cu","0.8707","9.865","1.275","27.59","153.87","67.53","0.28","2458160.76","1.13e+04","0.03181","18.45",null,null,null,null],[1003555,"     C/2018 A1 (PANSTARRS)","cu","0.9044","25.3","2.419","53.56","336.62","96.39","0.84","2458046.93","4.65e+04","0.007744","48.19",null,null,null,null],[1003559,"     C/2018 A6 (Gibbs)","cu","0.8034","15.35","3.018","76.95","340.39","264.54","2.44","2458678.80","2.2e+04","0.01639","27.69",null,null,null,null],[1003642,"     C/2018 DO4 (Lemmon)","cu","0.9070","25.86","2.406","160.47","251.13","175.97","359.70","2458713.91","4.8e+04","0.007496","49.31",null,null,null,null],[1003575,"     C/2018 EN4 (NEOWISE)","cu","0.9214","18.43","1.448","81.56","136.17","35.01","359.64","2458277.28","2.89e+04","0.01246","35.40",null,null,null,null],[1003572,"     C/2018 K1 (Weiland)","cu","0.9372","29.93","1.879","164.19","260.00","325.00","0.35","2458215.40","5.98e+04","0.006019","57.98",null,null,null,null],[1003578,"     C/2018 M1 (Catalina)","cu","0.9387","21.26","1.303","37.26","339.46","14.13","0.37","2458309.52","3.58e+04","0.01005","41.22",null,null,null,null],[1003582,"     C/2018 O1 (ATLAS)","cu","0.9441","27.87","1.558","154.04","87.62","162.50","359.81","2458362.07","5.38e+04","0.006698","54.19",null,null,null,null],[1003588,"     C/2018 R5 (Lemmon)","cu","0.8416","22.86","3.621","103.76","171.14","178.01","358.98","2458493.48","3.99e+04","0.00902","42.09",null,null,null,null],[1003871,"     C/2018 S2 (TESS)","cu","0.6149","14.21","5.471","64.22","85.13","290.68","356.17","2458427.69","1.96e+04","0.01841","22.94",null,null,null,null],[1003594,"     C/2018 V2 (ATLAS)","cu","0.9029","25.48","2.475","159.11","356.79","318.66","0.85","2458449.48","4.7e+04","0.007661","48.49",null,null,null,null],[1003598,"     C/2018 W1 (Catalina)","cu","0.9377","21.82","1.360","83.28","233.59","251.25","358.98","2458615.35","3.72e+04","0.00967","42.28",null,null,null,null],[1003599,"     C/2018 X3 (PANSTARRS)","cu","0.7827","12.42","2.699","43.37","78.92","359.83","359.53","2458483.30","1.6e+04","0.02251","22.14",null,null,null,null],[1003606,"     C/2019 A5 (PANSTARRS)","cu","0.7079","21.65","6.324","67.54","146.62","356.04","0.56","2458643.95","3.68e+04","0.009785","36.97",null,null,null,null],[1003630,"     C/2019 L2 (NEOWISE)","cu","0.9368","25.64","1.622","152.19","12.53","18.82","0.71","2458575.58","4.74e+04","0.00759","49.66",null,null,null,null],[1003645,"     C/2019 T5 (ATLAS)","cu","0.8092","8.013","1.529","33.42","247.70","189.62","4.08","2458696.64","8.29e+03","0.04345","14.50",null,null,null,null],[1003675,"     C/2019 Y4-D (ATLAS)","cu","0.9887","22.64","0.255","44.82","120.58","177.80","359.56","2459000.65","3.93e+04","0.009152","45.02",null,null,null,null],[1003699,"     C/2020 M3 (ATLAS)","cu","0.9527","26.82","1.268","23.47","71.25","328.45","0.22","2459148.12","5.07e+04","0.007097","52.37",null,null,null,null],[1003723,"     C/2020 S2 (PANSTARRS)","cu","0.8275","10.18","1.756","22.40","197.69","202.26","357.94","2459205.44","1.19e+04","0.03035","18.60",null,null,null,null],[1003780,"     C/2021 J1 (Maury-Attard)","cu","0.9344","26.53","1.741","92.72","88.32","147.33","0.48","2459264.99","4.99e+04","0.007214","51.31",null,null,null,null],[1003847,"     C/2022 F2 (NEOWISE)","cu","0.9338","23.94","1.585","97.29","58.69","200.63","0.19","2459661.96","4.28e+04","0.008415","46.29",null,null,null,null],[1003869,"     C/2022 P1 (NEOWISE)","cu","0.9135","18.43","1.595","154.61","205.08","249.93","359.48","2459911.97","2.89e+04","0.01246","35.27",null,null,null,null],[1003876,"     C/2022 Q2 (ATLAS)","cu","0.9499","32.8","1.644","151.49","352.94","44.06","359.52","2459976.09","6.86e+04","0.005246","63.96",null,null,null,null],[1003892,"     C/2022 S5 (PANSTARRS)","cu","0.8935","20.45","2.179","136.53","214.86","232.78","359.46","2459910.96","3.38e+04","0.01066","38.72",null,null,null,null],[1003906,"     C/2022 Y2 (Lemmon)","cu","0.8704","19.64","2.545","165.91","216.35","105.55","359.44","2460026.14","3.18e+04","0.01132","36.74",null,null,null,null],[1003914,"     C/2023 E1 (ATLAS)","cu","0.9469","19.33","1.027","38.31","164.57","105.89","0.01","2460126.61","3.11e+04","0.01159","37.64",null,null,null,null],[1003954,"     C/2023 S3 (Lemmon)","cu","0.9708","28.47","0.830","140.50","233.83","281.57","359.81","2460329.12","5.55e+04","0.006488","56.11",null,null,null,null],[1003975,"     C/2024 A2 (ATLAS)","cu","0.9418","32.32","1.882","119.11","78.17","295.58","359.71","2460429.40","6.71e+04","0.005363","62.77",null,null,null,null],[1004004,"     C/2024 L1 (PANSTARRS)","cu","0.5332","11.46","5.348","99.17","45.14","171.85","351.75","2460789.20","1.42e+04","0.02542","17.57",null,null,null,null],[1004015,"     C/2024 M1 (ATLAS)","cu","0.9429","29.83","1.703","73.71","76.22","345.61","359.23","2460634.54","5.95e+04","0.00605","57.95",null,null,null,null]],"count":106}